{"type":"FeatureCollection","placeholder":true,"attribution":"Nền minh họa, vẽ tay","center":[107.5935,16.5485],"bbox":[107.5874087,16.542661,107.5995913,16.554339],"features":[{"type":"Feature","properties":{"kind":"water","name":"Mặt nước (minh họa)"},"geometry":{"type":"Polygon","coordinates":[[[107.5874087,16.5473617],[107.5875961,16.5473367],[107.5877835,16.5473524],[107.5879709,16.5473787],[107.5881584,16.5473821],[107.5883458,16.5473509],[107.5885332,16.5473038],[107.5887206,16.5472775],[107.5889081,16.5472998],[107.5890955,16.5473697],[107.5892829,16.5474565],[107.5894703,16.54752],[107.5896578,16.5475379],[107.5898452,16.5475189],[107.5900326,16.5474956],[107.5902201,16.5474992],[107.5904075,16.5475366],[107.5905949,16.5475845],[107.5907823,16.5476057],[107.5909698,16.5475759],[107.5911572,16.5475015],[107.5913446,16.5474164],[107.591532,16.5473594],[107.5917195,16.5473484],[107.5919069,16.5473697],[107.5920943,16.5473892],[107.5922817,16.5473782],[107.5924692,16.5473353],[107.5926566,16.5472876],[107.592844,16.5472722],[107.5930314,16.5473094],[107.5932189,16.5473875],[107.5934063,16.54747],[107.5935937,16.5475199],[107.5937811,16.5475244],[107.5939686,16.5475019],[107.594156,16.5474872],[107.5943434,16.5475055],[107.5945308,16.5475532],[107.5947183,16.5475996],[107.5949057,16.5476086],[107.5950931,16.5475644],[107.5952805,16.5474836],[107.595468,16.5474046],[107.5956554,16.5473619],[107.5958428,16.5473633],[107.5960302,16.5473861],[107.5962177,16.5473953],[107.5964051,16.5473697],[107.5965925,16.547318],[107.5967799,16.5472739],[107.5969674,16.5472718],[107.5971548,16.5473227],[107.5973422,16.5474052],[107.5975297,16.5474797],[107.5977171,16.547515],[107.5979045,16.5475085],[107.5980919,16.5474864],[107.5982794,16.5474834],[107.5984668,16.5475161],[107.5986542,16.5475708],[107.5988416,16.5476117],[107.5990291,16.5476065],[107.5992165,16.5475495],[107.5994039,16.5474664],[107.5995913,16.5473971],[107.5995913,16.542661],[107.5874087,16.542661],[107.5874087,16.5473617]]]}},{"type":"Feature","properties":{"kind":"wetland"},"geometry":{"type":"Polygon","coordinates":[[[107.591204,16.5475973],[107.5912977,16.5481738],[107.5913915,16.5484047],[107.5914852,16.5485675],[107.5915789,16.5486945],[107.5916726,16.548798],[107.5917663,16.548883],[107.59186,16.5489509],[107.5919537,16.5490011],[107.5920475,16.5490326],[107.5921412,16.5490452],[107.5922349,16.54904],[107.5923286,16.5490203],[107.5924223,16.5489909],[107.592516,16.5489582],[107.5926097,16.5489294],[107.5927034,16.5489109],[107.5927972,16.5489084],[107.5928909,16.548925],[107.5929846,16.5489611],[107.5930783,16.5490146],[107.593172,16.5490806],[107.5932657,16.5491528],[107.5933594,16.5492237],[107.5934531,16.5492866],[107.5935469,16.5493358],[107.5936406,16.5493678],[107.5937343,16.5493818],[107.593828,16.5493791],[107.5939217,16.5493634],[107.5940154,16.5493393],[107.5941091,16.5493117],[107.5942028,16.549285],[107.5942966,16.549262],[107.5943903,16.5492437],[107.594484,16.5492291],[107.5945777,16.5492155],[107.5946714,16.5491991],[107.5947651,16.5491757],[107.5948588,16.5491417],[107.5949525,16.5490945],[107.5950463,16.5490326],[107.59514,16.5489561],[107.5952337,16.5488657],[107.5953274,16.5487619],[107.5954211,16.5486438],[107.5955148,16.5485068],[107.5956085,16.5483389],[107.5957023,16.5481081],[107.595796,16.5475364],[107.595796,16.5473417],[107.5957023,16.5473406],[107.5956085,16.5473502],[107.5955148,16.5473717],[107.5954211,16.547404],[107.5953274,16.5474441],[107.5952337,16.5474873],[107.59514,16.5475283],[107.5950463,16.5475621],[107.5949525,16.5475844],[107.5948588,16.5475933],[107.5947651,16.5475885],[107.5946714,16.5475723],[107.5945777,16.5475485],[107.594484,16.547522],[107.5943903,16.5474976],[107.5942966,16.5474795],[107.5942028,16.5474703],[107.5941091,16.5474704],[107.5940154,16.5474781],[107.5939217,16.5474902],[107.593828,16.5475021],[107.5937343,16.5475091],[107.5936406,16.5475071],[107.5935469,16.5474938],[107.5934531,16.5474686],[107.5933594,16.5474332],[107.5932657,16.5473914],[107.593172,16.5473479],[107.5930783,16.5473083],[107.5929846,16.5472773],[107.5928909,16.5472585],[107.5927972,16.5472535],[107.5927034,16.5472615],[107.5926097,16.5472799],[107.592516,16.5473043],[107.5924223,16.5473299],[107.5923286,16.5473518],[107.5922349,16.5473665],[107.5921412,16.5473719],[107.5920475,16.5473684],[107.5919537,16.5473582],[107.59186,16.5473452],[107.5917663,16.5473339],[107.5916726,16.5473291],[107.5915789,16.5473344],[107.5914852,16.5473515],[107.5913915,16.5473803],[107.5912977,16.5474184],[107.591204,16.5474616],[107.591204,16.5475973]]]}},{"type":"Feature","properties":{"kind":"water","name":"Lạch triều (minh họa)"},"geometry":{"type":"Polygon","coordinates":[[[107.5937958,16.5474768],[107.5937958,16.5475218],[107.5937958,16.5475667],[107.5938335,16.5476056],[107.5938701,16.5476438],[107.5939053,16.5476815],[107.5939387,16.5477192],[107.59397,16.5477571],[107.5939989,16.5477954],[107.5940251,16.5478342],[107.5940485,16.5478735],[107.5940689,16.5479132],[107.5940862,16.5479533],[107.5941002,16.5479936],[107.594111,16.5480342],[107.5941185,16.5480751],[107.5941228,16.5481163],[107.594124,16.5481579],[107.5941223,16.5482],[107.5941178,16.5482427],[107.5941108,16.548286],[107.5941015,16.54833],[107.5940904,16.5483747],[107.5940779,16.5484201],[107.5940644,16.5484661],[107.5940506,16.5485127],[107.5940369,16.5485596],[107.5940237,16.548607],[107.5940118,16.5486545],[107.5940014,16.548702],[107.5939932,16.5487495],[107.5939874,16.5487968],[107.5939846,16.5488437],[107.5940257,16.5488458],[107.5940323,16.5488018],[107.5940416,16.5487575],[107.5940532,16.548713],[107.5940669,16.5486682],[107.5940822,16.5486233],[107.5940987,16.5485782],[107.594116,16.5485331],[107.5941335,16.5484878],[107.5941509,16.5484425],[107.5941676,16.548397],[107.594183,16.5483513],[107.5941969,16.5483053],[107.5942087,16.5482588],[107.5942179,16.5482118],[107.5942241,16.5481642],[107.594227,16.548116],[107.5942263,16.5480673],[107.5942218,16.5480182],[107.5942133,16.5479689],[107.5942009,16.5479196],[107.5941846,16.5478706],[107.5941646,16.5478221],[107.5941411,16.5477743],[107.5941145,16.5477274],[107.5940852,16.5476816],[107.5940537,16.5476368],[107.5940205,16.5475932],[107.5939861,16.5475505],[107.5939513,16.5475085],[107.5939164,16.5474669],[107.5939164,16.547422],[107.5939164,16.5473771],[107.5937958,16.5474768]]]}},{"type":"Feature","properties":{"kind":"aquaculture"},"geometry":{"type":"Polygon","coordinates":[[[107.5902201,16.5477315],[107.5907823,16.5477315],[107.5907823,16.5481806],[107.5902201,16.5481806],[107.5902201,16.5477315]]]}},{"type":"Feature","properties":{"kind":"aquaculture"},"geometry":{"type":"Polygon","coordinates":[[[107.5902201,16.5482525],[107.5907823,16.5482525],[107.5907823,16.5487017],[107.5902201,16.5487017],[107.5902201,16.5482525]]]}},{"type":"Feature","properties":{"kind":"aquaculture"},"geometry":{"type":"Polygon","coordinates":[[[107.5895641,16.5476606],[107.5901263,16.5476606],[107.5901263,16.5481098],[107.5895641,16.5481098],[107.5895641,16.5476606]]]}},{"type":"Feature","properties":{"kind":"aquaculture"},"geometry":{"type":"Polygon","coordinates":[[[107.5895641,16.5481816],[107.5901263,16.5481816],[107.5901263,16.5486308],[107.5895641,16.5486308],[107.5895641,16.5481816]]]}},{"type":"Feature","properties":{"kind":"aquaculture"},"geometry":{"type":"Polygon","coordinates":[[[107.5889081,16.5476458],[107.5894703,16.5476458],[107.5894703,16.548095],[107.5889081,16.548095],[107.5889081,16.5476458]]]}},{"type":"Feature","properties":{"kind":"aquaculture"},"geometry":{"type":"Polygon","coordinates":[[[107.5889081,16.5481668],[107.5894703,16.5481668],[107.5894703,16.548616],[107.5889081,16.548616],[107.5889081,16.5481668]]]}},{"type":"Feature","properties":{"kind":"aquaculture"},"geometry":{"type":"Polygon","coordinates":[[[107.5882521,16.5474961],[107.5888144,16.5474961],[107.5888144,16.5479452],[107.5882521,16.5479452],[107.5882521,16.5474961]]]}},{"type":"Feature","properties":{"kind":"aquaculture"},"geometry":{"type":"Polygon","coordinates":[[[107.5882521,16.5480171],[107.5888144,16.5480171],[107.5888144,16.5484663],[107.5882521,16.5484663],[107.5882521,16.5480171]]]}},{"type":"Feature","properties":{"kind":"aquaculture"},"geometry":{"type":"Polygon","coordinates":[[[107.5962177,16.5475211],[107.5967799,16.5475211],[107.5967799,16.5479702],[107.5962177,16.5479702],[107.5962177,16.5475211]]]}},{"type":"Feature","properties":{"kind":"aquaculture"},"geometry":{"type":"Polygon","coordinates":[[[107.5962177,16.5480421],[107.5967799,16.5480421],[107.5967799,16.5484913],[107.5962177,16.5484913],[107.5962177,16.5480421]]]}},{"type":"Feature","properties":{"kind":"aquaculture"},"geometry":{"type":"Polygon","coordinates":[[[107.5968737,16.5475717],[107.5974359,16.5475717],[107.5974359,16.5480208],[107.5968737,16.5480208],[107.5968737,16.5475717]]]}},{"type":"Feature","properties":{"kind":"aquaculture"},"geometry":{"type":"Polygon","coordinates":[[[107.5968737,16.5480927],[107.5974359,16.5480927],[107.5974359,16.5485418],[107.5968737,16.5485418],[107.5968737,16.5480927]]]}},{"type":"Feature","properties":{"kind":"aquaculture"},"geometry":{"type":"Polygon","coordinates":[[[107.5975297,16.5476122],[107.5980919,16.5476122],[107.5980919,16.5480613],[107.5975297,16.5480613],[107.5975297,16.5476122]]]}},{"type":"Feature","properties":{"kind":"aquaculture"},"geometry":{"type":"Polygon","coordinates":[[[107.5975297,16.5481332],[107.5980919,16.5481332],[107.5980919,16.5485824],[107.5975297,16.5485824],[107.5975297,16.5481332]]]}},{"type":"Feature","properties":{"kind":"aquaculture"},"geometry":{"type":"Polygon","coordinates":[[[107.5981856,16.5477212],[107.5987479,16.5477212],[107.5987479,16.5481703],[107.5981856,16.5481703],[107.5981856,16.5477212]]]}},{"type":"Feature","properties":{"kind":"aquaculture"},"geometry":{"type":"Polygon","coordinates":[[[107.5981856,16.5482422],[107.5987479,16.5482422],[107.5987479,16.5486913],[107.5981856,16.5486913],[107.5981856,16.5482422]]]}},{"type":"Feature","properties":{"kind":"farmland"},"geometry":{"type":"Polygon","coordinates":[[[107.5881396,16.5496498],[107.5889643,16.5496498],[107.5889643,16.5502068],[107.5881396,16.5502068],[107.5881396,16.5496498]]]}},{"type":"Feature","properties":{"kind":"farmland"},"geometry":{"type":"Polygon","coordinates":[[[107.5881396,16.5502787],[107.5889643,16.5502787],[107.5889643,16.5508356],[107.5881396,16.5508356],[107.5881396,16.5502787]]]}},{"type":"Feature","properties":{"kind":"farmland"},"geometry":{"type":"Polygon","coordinates":[[[107.5890393,16.5496498],[107.5898639,16.5496498],[107.5898639,16.5502068],[107.5890393,16.5502068],[107.5890393,16.5496498]]]}},{"type":"Feature","properties":{"kind":"farmland"},"geometry":{"type":"Polygon","coordinates":[[[107.5890393,16.5502787],[107.5898639,16.5502787],[107.5898639,16.5508356],[107.5890393,16.5508356],[107.5890393,16.5502787]]]}},{"type":"Feature","properties":{"kind":"farmland"},"geometry":{"type":"Polygon","coordinates":[[[107.5899389,16.5496498],[107.5907636,16.5496498],[107.5907636,16.5502068],[107.5899389,16.5502068],[107.5899389,16.5496498]]]}},{"type":"Feature","properties":{"kind":"farmland"},"geometry":{"type":"Polygon","coordinates":[[[107.5899389,16.5502787],[107.5907636,16.5502787],[107.5907636,16.5508356],[107.5899389,16.5508356],[107.5899389,16.5502787]]]}},{"type":"Feature","properties":{"kind":"farmland"},"geometry":{"type":"Polygon","coordinates":[[[107.5908386,16.5496498],[107.5916632,16.5496498],[107.5916632,16.5502068],[107.5908386,16.5502068],[107.5908386,16.5496498]]]}},{"type":"Feature","properties":{"kind":"farmland"},"geometry":{"type":"Polygon","coordinates":[[[107.5908386,16.5502787],[107.5916632,16.5502787],[107.5916632,16.5508356],[107.5908386,16.5508356],[107.5908386,16.5502787]]]}},{"type":"Feature","properties":{"kind":"farmland"},"geometry":{"type":"Polygon","coordinates":[[[107.5917382,16.5496498],[107.5925629,16.5496498],[107.5925629,16.5502068],[107.5917382,16.5502068],[107.5917382,16.5496498]]]}},{"type":"Feature","properties":{"kind":"farmland"},"geometry":{"type":"Polygon","coordinates":[[[107.5917382,16.5502787],[107.5925629,16.5502787],[107.5925629,16.5508356],[107.5917382,16.5508356],[107.5917382,16.5502787]]]}},{"type":"Feature","properties":{"kind":"farmland"},"geometry":{"type":"Polygon","coordinates":[[[107.5926378,16.5496498],[107.5934625,16.5496498],[107.5934625,16.5502068],[107.5926378,16.5502068],[107.5926378,16.5496498]]]}},{"type":"Feature","properties":{"kind":"farmland"},"geometry":{"type":"Polygon","coordinates":[[[107.5926378,16.5502787],[107.5934625,16.5502787],[107.5934625,16.5508356],[107.5926378,16.5508356],[107.5926378,16.5502787]]]}},{"type":"Feature","properties":{"kind":"farmland"},"geometry":{"type":"Polygon","coordinates":[[[107.5935375,16.5496498],[107.5943622,16.5496498],[107.5943622,16.5502068],[107.5935375,16.5502068],[107.5935375,16.5496498]]]}},{"type":"Feature","properties":{"kind":"farmland"},"geometry":{"type":"Polygon","coordinates":[[[107.5935375,16.5502787],[107.5943622,16.5502787],[107.5943622,16.5508356],[107.5935375,16.5508356],[107.5935375,16.5502787]]]}},{"type":"Feature","properties":{"kind":"farmland"},"geometry":{"type":"Polygon","coordinates":[[[107.5944371,16.5496498],[107.5952618,16.5496498],[107.5952618,16.5502068],[107.5944371,16.5502068],[107.5944371,16.5496498]]]}},{"type":"Feature","properties":{"kind":"farmland"},"geometry":{"type":"Polygon","coordinates":[[[107.5944371,16.5502787],[107.5952618,16.5502787],[107.5952618,16.5508356],[107.5944371,16.5508356],[107.5944371,16.5502787]]]}},{"type":"Feature","properties":{"kind":"farmland"},"geometry":{"type":"Polygon","coordinates":[[[107.5953368,16.5496498],[107.5961614,16.5496498],[107.5961614,16.5502068],[107.5953368,16.5502068],[107.5953368,16.5496498]]]}},{"type":"Feature","properties":{"kind":"farmland"},"geometry":{"type":"Polygon","coordinates":[[[107.5953368,16.5502787],[107.5961614,16.5502787],[107.5961614,16.5508356],[107.5953368,16.5508356],[107.5953368,16.5502787]]]}},{"type":"Feature","properties":{"kind":"farmland"},"geometry":{"type":"Polygon","coordinates":[[[107.5962364,16.5496498],[107.5970611,16.5496498],[107.5970611,16.5502068],[107.5962364,16.5502068],[107.5962364,16.5496498]]]}},{"type":"Feature","properties":{"kind":"farmland"},"geometry":{"type":"Polygon","coordinates":[[[107.5962364,16.5502787],[107.5970611,16.5502787],[107.5970611,16.5508356],[107.5962364,16.5508356],[107.5962364,16.5502787]]]}},{"type":"Feature","properties":{"kind":"farmland"},"geometry":{"type":"Polygon","coordinates":[[[107.5971361,16.5496498],[107.5979607,16.5496498],[107.5979607,16.5502068],[107.5971361,16.5502068],[107.5971361,16.5496498]]]}},{"type":"Feature","properties":{"kind":"farmland"},"geometry":{"type":"Polygon","coordinates":[[[107.5971361,16.5502787],[107.5979607,16.5502787],[107.5979607,16.5508356],[107.5971361,16.5508356],[107.5971361,16.5502787]]]}},{"type":"Feature","properties":{"kind":"farmland"},"geometry":{"type":"Polygon","coordinates":[[[107.5980357,16.5496498],[107.5988604,16.5496498],[107.5988604,16.5502068],[107.5980357,16.5502068],[107.5980357,16.5496498]]]}},{"type":"Feature","properties":{"kind":"farmland"},"geometry":{"type":"Polygon","coordinates":[[[107.5980357,16.5502787],[107.5988604,16.5502787],[107.5988604,16.5508356],[107.5980357,16.5508356],[107.5980357,16.5502787]]]}},{"type":"Feature","properties":{"kind":"residential"},"geometry":{"type":"Polygon","coordinates":[[[107.5874087,16.5511051],[107.5995913,16.5511051],[107.5995913,16.554339],[107.5874087,16.554339],[107.5874087,16.5511051]]]}},{"type":"Feature","properties":{"kind":"road","highway":"tertiary"},"geometry":{"type":"LineString","coordinates":[[107.5874087,16.5512487],[107.5875961,16.5512476],[107.5877835,16.5512455],[107.5879709,16.5512423],[107.5881584,16.5512381],[107.5883458,16.5512331],[107.5885332,16.5512273],[107.5887206,16.5512208],[107.5889081,16.5512138],[107.5890955,16.5512065],[107.5892829,16.5511988],[107.5894703,16.5511912],[107.5896578,16.5511835],[107.5898452,16.5511762],[107.5900326,16.5511692],[107.5902201,16.5511627],[107.5904075,16.5511569],[107.5905949,16.5511518],[107.5907823,16.5511476],[107.5909698,16.5511444],[107.5911572,16.5511423],[107.5913446,16.5511412],[107.591532,16.5511412],[107.5917195,16.5511423],[107.5919069,16.5511444],[107.5920943,16.5511476],[107.5922817,16.5511518],[107.5924692,16.5511568],[107.5926566,16.5511626],[107.592844,16.5511691],[107.5930314,16.5511761],[107.5932189,16.5511835],[107.5934063,16.5511911],[107.5935937,16.5511988],[107.5937811,16.5512064],[107.5939686,16.5512138],[107.594156,16.5512208],[107.5943434,16.5512272],[107.5945308,16.5512331],[107.5947183,16.5512381],[107.5949057,16.5512423],[107.5950931,16.5512454],[107.5952805,16.5512476],[107.595468,16.5512487],[107.5956554,16.5512487],[107.5958428,16.5512476],[107.5960302,16.5512454],[107.5962177,16.5512422],[107.5964051,16.5512381],[107.5965925,16.551233],[107.5967799,16.5512272],[107.5969674,16.5512207],[107.5971548,16.5512137],[107.5973422,16.5512063],[107.5975297,16.5511987],[107.5977171,16.551191],[107.5979045,16.5511834],[107.5980919,16.551176],[107.5982794,16.551169],[107.5984668,16.5511626],[107.5986542,16.5511568],[107.5988416,16.5511517],[107.5990291,16.5511476],[107.5992165,16.5511444],[107.5994039,16.5511422],[107.5995913,16.5511412]]}},{"type":"Feature","properties":{"kind":"road","highway":"track"},"geometry":{"type":"LineString","coordinates":[[107.5930689,16.5511949],[107.5930314,16.5505661],[107.5929565,16.5498475],[107.592919,16.5493534]]}},{"type":"Feature","properties":{"kind":"road","highway":"residential"},"geometry":{"type":"LineString","coordinates":[[107.595468,16.5512129],[107.5955148,16.5522729],[107.5955804,16.554339]]}},{"type":"Feature","properties":{"kind":"building"},"geometry":{"type":"Polygon","coordinates":[[[107.5877395,16.5514347],[107.5878459,16.5514347],[107.5878459,16.5515266],[107.5877395,16.5515266],[107.5877395,16.5514347]]]}},{"type":"Feature","properties":{"kind":"building"},"geometry":{"type":"Polygon","coordinates":[[[107.5881993,16.5513877],[107.5883667,16.5513877],[107.5883667,16.5515038],[107.5881993,16.5515038],[107.5881993,16.5513877]]]}},{"type":"Feature","properties":{"kind":"building"},"geometry":{"type":"Polygon","coordinates":[[[107.5887998,16.5514222],[107.588941,16.5514222],[107.588941,16.5515158],[107.5887998,16.5515158],[107.5887998,16.5514222]]]}},{"type":"Feature","properties":{"kind":"building"},"geometry":{"type":"Polygon","coordinates":[[[107.5892738,16.5514568],[107.5893976,16.5514568],[107.5893976,16.55156],[107.5892738,16.55156],[107.5892738,16.5514568]]]}},{"type":"Feature","properties":{"kind":"building"},"geometry":{"type":"Polygon","coordinates":[[[107.589897,16.5513075],[107.5899934,16.5513075],[107.5899934,16.551413],[107.589897,16.551413],[107.589897,16.5513075]]]}},{"type":"Feature","properties":{"kind":"building"},"geometry":{"type":"Polygon","coordinates":[[[107.5903768,16.5514322],[107.5905124,16.5514322],[107.5905124,16.5515274],[107.5903768,16.5515274],[107.5903768,16.5514322]]]}},{"type":"Feature","properties":{"kind":"building"},"geometry":{"type":"Polygon","coordinates":[[[107.5908854,16.5513173],[107.5910293,16.5513173],[107.5910293,16.5514077],[107.5908854,16.5514077],[107.5908854,16.5513173]]]}},{"type":"Feature","properties":{"kind":"building"},"geometry":{"type":"Polygon","coordinates":[[[107.5915021,16.5513443],[107.5916276,16.5513443],[107.5916276,16.5514293],[107.5915021,16.5514293],[107.5915021,16.5513443]]]}},{"type":"Feature","properties":{"kind":"building"},"geometry":{"type":"Polygon","coordinates":[[[107.5920347,16.5514604],[107.5921953,16.5514604],[107.5921953,16.551575],[107.5920347,16.551575],[107.5920347,16.5514604]]]}},{"type":"Feature","properties":{"kind":"building"},"geometry":{"type":"Polygon","coordinates":[[[107.5926279,16.5514252],[107.5927338,16.5514252],[107.5927338,16.5515185],[107.5926279,16.5515185],[107.5926279,16.5514252]]]}},{"type":"Feature","properties":{"kind":"building"},"geometry":{"type":"Polygon","coordinates":[[[107.5931944,16.5514233],[107.593289,16.5514233],[107.593289,16.5515088],[107.5931944,16.5515088],[107.5931944,16.5514233]]]}},{"type":"Feature","properties":{"kind":"building"},"geometry":{"type":"Polygon","coordinates":[[[107.5937184,16.5513441],[107.5938748,16.5513441],[107.5938748,16.5514474],[107.5937184,16.5514474],[107.5937184,16.5513441]]]}},{"type":"Feature","properties":{"kind":"building"},"geometry":{"type":"Polygon","coordinates":[[[107.5941736,16.5513575],[107.5942939,16.5513575],[107.5942939,16.5514789],[107.5941736,16.5514789],[107.5941736,16.5513575]]]}},{"type":"Feature","properties":{"kind":"building"},"geometry":{"type":"Polygon","coordinates":[[[107.5947216,16.5514235],[107.5948329,16.5514235],[107.5948329,16.5515097],[107.5947216,16.5515097],[107.5947216,16.5514235]]]}},{"type":"Feature","properties":{"kind":"building"},"geometry":{"type":"Polygon","coordinates":[[[107.5953057,16.5514123],[107.5954276,16.5514123],[107.5954276,16.5515017],[107.5953057,16.5515017],[107.5953057,16.5514123]]]}},{"type":"Feature","properties":{"kind":"building"},"geometry":{"type":"Polygon","coordinates":[[[107.5959137,16.5513715],[107.5960193,16.5513715],[107.5960193,16.5514661],[107.5959137,16.5514661],[107.5959137,16.5513715]]]}},{"type":"Feature","properties":{"kind":"building"},"geometry":{"type":"Polygon","coordinates":[[[107.5964574,16.5513657],[107.5965838,16.5513657],[107.5965838,16.5514629],[107.5964574,16.5514629],[107.5964574,16.5513657]]]}},{"type":"Feature","properties":{"kind":"building"},"geometry":{"type":"Polygon","coordinates":[[[107.5970027,16.5513313],[107.5971397,16.5513313],[107.5971397,16.5514301],[107.5970027,16.5514301],[107.5970027,16.5513313]]]}},{"type":"Feature","properties":{"kind":"building"},"geometry":{"type":"Polygon","coordinates":[[[107.5974848,16.5514582],[107.59763,16.5514582],[107.59763,16.5515671],[107.5974848,16.5515671],[107.5974848,16.5514582]]]}},{"type":"Feature","properties":{"kind":"building"},"geometry":{"type":"Polygon","coordinates":[[[107.5980587,16.5513877],[107.5981575,16.5513877],[107.5981575,16.551511],[107.5980587,16.551511],[107.5980587,16.5513877]]]}},{"type":"Feature","properties":{"kind":"building"},"geometry":{"type":"Polygon","coordinates":[[[107.5985328,16.5514267],[107.5986619,16.5514267],[107.5986619,16.5515204],[107.5985328,16.5515204],[107.5985328,16.5514267]]]}},{"type":"Feature","properties":{"kind":"building"},"geometry":{"type":"Polygon","coordinates":[[[107.5990378,16.5513287],[107.5991439,16.5513287],[107.5991439,16.5514096],[107.5990378,16.5514096],[107.5990378,16.5513287]]]}},{"type":"Feature","properties":{"kind":"building"},"geometry":{"type":"Polygon","coordinates":[[[107.5877368,16.5519759],[107.5878312,16.5519759],[107.5878312,16.5520876],[107.5877368,16.5520876],[107.5877368,16.5519759]]]}},{"type":"Feature","properties":{"kind":"building"},"geometry":{"type":"Polygon","coordinates":[[[107.5883001,16.5519319],[107.5884315,16.5519319],[107.5884315,16.5520306],[107.5883001,16.5520306],[107.5883001,16.5519319]]]}},{"type":"Feature","properties":{"kind":"building"},"geometry":{"type":"Polygon","coordinates":[[[107.588752,16.5518773],[107.5888589,16.5518773],[107.5888589,16.5520015],[107.588752,16.5520015],[107.588752,16.5518773]]]}},{"type":"Feature","properties":{"kind":"building"},"geometry":{"type":"Polygon","coordinates":[[[107.589307,16.5519955],[107.5894187,16.5519955],[107.5894187,16.5520997],[107.589307,16.5520997],[107.589307,16.5519955]]]}},{"type":"Feature","properties":{"kind":"building"},"geometry":{"type":"Polygon","coordinates":[[[107.5898817,16.5519918],[107.5900094,16.5519918],[107.5900094,16.5521036],[107.5898817,16.5521036],[107.5898817,16.5519918]]]}},{"type":"Feature","properties":{"kind":"building"},"geometry":{"type":"Polygon","coordinates":[[[107.5904499,16.5519177],[107.59061,16.5519177],[107.59061,16.552036],[107.5904499,16.552036],[107.5904499,16.5519177]]]}},{"type":"Feature","properties":{"kind":"building"},"geometry":{"type":"Polygon","coordinates":[[[107.590908,16.5518691],[107.5910697,16.5518691],[107.5910697,16.5519722],[107.590908,16.5519722],[107.590908,16.5518691]]]}},{"type":"Feature","properties":{"kind":"building"},"geometry":{"type":"Polygon","coordinates":[[[107.5914659,16.5518803],[107.5915921,16.5518803],[107.5915921,16.5519931],[107.5914659,16.5519931],[107.5914659,16.5518803]]]}},{"type":"Feature","properties":{"kind":"building"},"geometry":{"type":"Polygon","coordinates":[[[107.5920351,16.5519585],[107.5921741,16.5519585],[107.5921741,16.5520832],[107.5920351,16.5520832],[107.5920351,16.5519585]]]}},{"type":"Feature","properties":{"kind":"building"},"geometry":{"type":"Polygon","coordinates":[[[107.5925289,16.5518941],[107.592649,16.5518941],[107.592649,16.5519765],[107.5925289,16.5519765],[107.5925289,16.5518941]]]}},{"type":"Feature","properties":{"kind":"building"},"geometry":{"type":"Polygon","coordinates":[[[107.5930982,16.5519473],[107.5932117,16.5519473],[107.5932117,16.5520628],[107.5930982,16.5520628],[107.5930982,16.5519473]]]}},{"type":"Feature","properties":{"kind":"building"},"geometry":{"type":"Polygon","coordinates":[[[107.5936979,16.5519861],[107.5937959,16.5519861],[107.5937959,16.5520906],[107.5936979,16.5520906],[107.5936979,16.5519861]]]}},{"type":"Feature","properties":{"kind":"building"},"geometry":{"type":"Polygon","coordinates":[[[107.5941786,16.5519424],[107.5943288,16.5519424],[107.5943288,16.5520493],[107.5941786,16.5520493],[107.5941786,16.5519424]]]}},{"type":"Feature","properties":{"kind":"building"},"geometry":{"type":"Polygon","coordinates":[[[107.5946994,16.5519299],[107.5948376,16.5519299],[107.5948376,16.5520269],[107.5946994,16.5520269],[107.5946994,16.5519299]]]}},{"type":"Feature","properties":{"kind":"building"},"geometry":{"type":"Polygon","coordinates":[[[107.5952417,16.551878],[107.5953515,16.551878],[107.5953515,16.5519815],[107.5952417,16.5519815],[107.5952417,16.551878]]]}},{"type":"Feature","properties":{"kind":"building"},"geometry":{"type":"Polygon","coordinates":[[[107.5958758,16.5519334],[107.5960195,16.5519334],[107.5960195,16.5520565],[107.5958758,16.5520565],[107.5958758,16.5519334]]]}},{"type":"Feature","properties":{"kind":"building"},"geometry":{"type":"Polygon","coordinates":[[[107.596314,16.5518996],[107.5964698,16.5518996],[107.5964698,16.5520001],[107.596314,16.5520001],[107.596314,16.5518996]]]}},{"type":"Feature","properties":{"kind":"building"},"geometry":{"type":"Polygon","coordinates":[[[107.596897,16.55198],[107.597043,16.55198],[107.597043,16.5520673],[107.596897,16.5520673],[107.596897,16.55198]]]}},{"type":"Feature","properties":{"kind":"building"},"geometry":{"type":"Polygon","coordinates":[[[107.5974248,16.5519285],[107.5975368,16.5519285],[107.5975368,16.5520541],[107.5974248,16.5520541],[107.5974248,16.5519285]]]}},{"type":"Feature","properties":{"kind":"building"},"geometry":{"type":"Polygon","coordinates":[[[107.598034,16.5519584],[107.5981985,16.5519584],[107.5981985,16.5520565],[107.598034,16.5520565],[107.598034,16.5519584]]]}},{"type":"Feature","properties":{"kind":"building"},"geometry":{"type":"Polygon","coordinates":[[[107.5984913,16.5518983],[107.5986427,16.5518983],[107.5986427,16.5520096],[107.5984913,16.5520096],[107.5984913,16.5518983]]]}},{"type":"Feature","properties":{"kind":"building"},"geometry":{"type":"Polygon","coordinates":[[[107.5991496,16.5518641],[107.5992681,16.5518641],[107.5992681,16.5519526],[107.5991496,16.5519526],[107.5991496,16.5518641]]]}}]}